{
  "norad_id": 51714,
  "name": "STARLINK-3528",
  "history": [
    {
      "epoch": "2026-03-28T18:07:17.103648Z",
      "apogee_km": 540.602076032159,
      "perigee_km": 538.8810462037236,
      "latitude_deg": -1.9210146950806637e-05,
      "longitude_deg": 145.51626446689036,
      "height_km": 540.5731278054694,
      "semi_major_axis_km": 6917.878561117941,
      "eccentricity": 0.00012439,
      "inclination_deg": 53.2158,
      "raan_deg": 243.5085,
      "arg_perigee_deg": 85.7255,
      "mean_anomaly_deg": 274.3879,
      "mean_motion_rev_day": 15.08840598
    },
    {
      "epoch": "2026-03-29T03:39:35.783136Z",
      "apogee_km": 540.6055322784459,
      "perigee_km": 538.8705292207342,
      "latitude_deg": -3.5254587977633275e-05,
      "longitude_deg": 0.2626881367333962,
      "height_km": 540.5725958316149,
      "semi_major_axis_km": 6917.87503074959,
      "eccentricity": 0.0001254,
      "inclination_deg": 53.2159,
      "raan_deg": 241.7245,
      "arg_perigee_deg": 85.9586,
      "mean_anomaly_deg": 274.1549,
      "mean_motion_rev_day": 15.08841753
    },
    {
      "epoch": "2026-03-30T03:30:22.835232Z",
      "apogee_km": 540.613002303211,
      "perigee_km": 538.8752305667631,
      "latitude_deg": -1.734666656833218e-06,
      "longitude_deg": -2.8732737264402566,
      "height_km": 540.6276649950992,
      "semi_major_axis_km": 6917.881116434986,
      "eccentricity": 0.0001256,
      "inclination_deg": 53.2159,
      "raan_deg": 237.2639,
      "arg_perigee_deg": 89.1993,
      "mean_anomaly_deg": 270.9143,
      "mean_motion_rev_day": 15.08839762
    },
    {
      "epoch": "2026-03-30T13:02:41.899200Z",
      "apogee_km": 540.6447108767852,
      "perigee_km": 538.8562985990602,
      "latitude_deg": 7.648050821181596e-05,
      "longitude_deg": -148.12708588048616,
      "height_km": 540.6012854233368,
      "semi_major_axis_km": 6917.887504737922,
      "eccentricity": 0.00012926,
      "inclination_deg": 53.2173,
      "raan_deg": 235.4812,
      "arg_perigee_deg": 87.1155,
      "mean_anomaly_deg": 272.9986,
      "mean_motion_rev_day": 15.08837672
    },
    {
      "epoch": "2026-03-30T19:24:14.336928Z",
      "apogee_km": 540.6473897190544,
      "perigee_km": 538.8463878274515,
      "latitude_deg": -2.153416309542154e-05,
      "longitude_deg": 115.03642906869105,
      "height_km": 540.6601429057536,
      "semi_major_axis_km": 6917.883888773253,
      "eccentricity": 0.00013017,
      "inclination_deg": 53.2171,
      "raan_deg": 234.2911,
      "arg_perigee_deg": 91.1133,
      "mean_anomaly_deg": 269.0008,
      "mean_motion_rev_day": 15.08838855
    },
    {
      "epoch": "2026-03-31T19:15:01.732032Z",
      "apogee_km": 540.6800244040578,
      "perigee_km": 538.8343302375497,
      "latitude_deg": 4.083919243079273e-06,
      "longitude_deg": 111.89932896416225,
      "height_km": 540.6736667909483,
      "semi_major_axis_km": 6917.8941773208035,
      "eccentricity": 0.0001334,
      "inclination_deg": 53.2165,
      "raan_deg": 229.8308,
      "arg_perigee_deg": 91.2943,
      "mean_anomaly_deg": 268.8202,
      "mean_motion_rev_day": 15.08835489
    },
    {
      "epoch": "2026-04-01T15:55:02.430912Z",
      "apogee_km": 540.635037263075,
      "perigee_km": 538.8737421152609,
      "latitude_deg": 1.3099696704483238e-06,
      "longitude_deg": 157.18165818345406,
      "height_km": 540.6539451507249,
      "semi_major_axis_km": 6917.891389689168,
      "eccentricity": 0.0001273,
      "inclination_deg": 53.2158,
      "raan_deg": 225.9648,
      "arg_perigee_deg": 90.2538,
      "mean_anomaly_deg": 269.86,
      "mean_motion_rev_day": 15.08836401
    },
    {
      "epoch": "2026-04-02T15:45:49.689504Z",
      "apogee_km": 540.5922221879619,
      "perigee_km": 538.9185073092349,
      "latitude_deg": 2.522928467934697e-05,
      "longitude_deg": 154.04492670034836,
      "height_km": 540.631058900462,
      "semi_major_axis_km": 6917.892364748598,
      "eccentricity": 0.00012097,
      "inclination_deg": 53.2159,
      "raan_deg": 221.5043,
      "arg_perigee_deg": 88.6268,
      "mean_anomaly_deg": 271.4863,
      "mean_motion_rev_day": 15.08836082
    },
    {
      "epoch": "2026-04-03T17:11:59.836992Z",
      "apogee_km": 540.6096873682927,
      "perigee_km": 538.8829836877449,
      "latitude_deg": 1.9249472975456026e-06,
      "longitude_deg": 126.70030271105985,
      "height_km": 540.6036107890865,
      "semi_major_axis_km": 6917.8833355280185,
      "eccentricity": 0.0001248,
      "inclination_deg": 53.2164,
      "raan_deg": 216.7466,
      "arg_perigee_deg": 87.4454,
      "mean_anomaly_deg": 272.6681,
      "mean_motion_rev_day": 15.08839036
    },
    {
      "epoch": "2026-04-04T15:27:24.443424Z",
      "apogee_km": 540.6537111697044,
      "perigee_km": 538.8758104171802,
      "latitude_deg": -8.452637133426823e-06,
      "longitude_deg": 147.77051182280567,
      "height_km": 540.6079818190223,
      "semi_major_axis_km": 6917.901760793442,
      "eccentricity": 0.0001285,
      "inclination_deg": 53.2172,
      "raan_deg": 212.5834,
      "arg_perigee_deg": 86.6097,
      "mean_anomaly_deg": 273.5042,
      "mean_motion_rev_day": 15.08833008
    },
    {
      "epoch": "2026-04-05T13:42:48.319776Z",
      "apogee_km": 540.6518025654786,
      "perigee_km": 538.8614516947773,
      "latitude_deg": -2.0912544551510837e-05,
      "longitude_deg": 168.8438689867042,
      "height_km": 540.6135050882583,
      "semi_major_axis_km": 6917.893627130127,
      "eccentricity": 0.0001294,
      "inclination_deg": 53.2173,
      "raan_deg": 208.4203,
      "arg_perigee_deg": 87.5086,
      "mean_anomaly_deg": 272.6054,
      "mean_motion_rev_day": 15.08835669
    },
    {
      "epoch": "2026-04-05T13:42:48.320640Z",
      "apogee_km": 540.6516642076049,
      "perigee_km": 538.8615900526502,
      "latitude_deg": -1.907893969943915e-05,
      "longitude_deg": 168.84396674018922,
      "height_km": 540.613511104108,
      "semi_major_axis_km": 6917.893627130127,
      "eccentricity": 0.00012938,
      "inclination_deg": 53.2173,
      "raan_deg": 208.4204,
      "arg_perigee_deg": 87.5086,
      "mean_anomaly_deg": 272.6054,
      "mean_motion_rev_day": 15.08835669
    },
    {
      "epoch": "2026-04-06T07:12:02.670624Z",
      "apogee_km": 540.5377127406155,
      "perigee_km": 538.9685968957001,
      "latitude_deg": 4.957975657593218e-05,
      "longitude_deg": -97.45515401207518,
      "height_km": 540.4913162392318,
      "semi_major_axis_km": 6917.8901548181575,
      "eccentricity": 0.00011341,
      "inclination_deg": 53.2169,
      "raan_deg": 205.1492,
      "arg_perigee_deg": 78.3948,
      "mean_anomaly_deg": 281.7172,
      "mean_motion_rev_day": 15.08836805
    },
    {
      "epoch": "2026-04-07T13:24:22.157856Z",
      "apogee_km": 540.5887093599977,
      "perigee_km": 538.8932758215742,
      "latitude_deg": 7.215298638125039e-06,
      "longitude_deg": 162.57362207587158,
      "height_km": 540.5090259422705,
      "semi_major_axis_km": 6917.877992590786,
      "eccentricity": 0.00012254,
      "inclination_deg": 53.2172,
      "raan_deg": 199.4997,
      "arg_perigee_deg": 81.3252,
      "mean_anomaly_deg": 278.7879,
      "mean_motion_rev_day": 15.08840784
    },
    {
      "epoch": "2026-04-07T16:35:08.359872Z",
      "apogee_km": 540.5946706408458,
      "perigee_km": 538.8831881359147,
      "latitude_deg": -1.1229249488841755e-05,
      "longitude_deg": 114.15582212531227,
      "height_km": 540.5024098137998,
      "semi_major_axis_km": 6917.8759293883795,
      "eccentricity": 0.0001237,
      "inclination_deg": 53.2173,
      "raan_deg": 198.905,
      "arg_perigee_deg": 81.0988,
      "mean_anomaly_deg": 279.0144,
      "mean_motion_rev_day": 15.08841459
    },
    {
      "epoch": "2026-04-08T13:15:09.439776Z",
      "apogee_km": 540.6095973510592,
      "perigee_km": 538.8849687992879,
      "latitude_deg": -3.1319163413779276e-05,
      "longitude_deg": 159.43614281638705,
      "height_km": 540.5166854940101,
      "semi_major_axis_km": 6917.884283075173,
      "eccentricity": 0.00012465,
      "inclination_deg": 53.2171,
      "raan_deg": 195.0386,
      "arg_perigee_deg": 81.5675,
      "mean_anomaly_deg": 278.5458,
      "mean_motion_rev_day": 15.08838726
    },
    {
      "epoch": "2026-04-09T13:05:56.853024Z",
      "apogee_km": 540.6225522067753,
      "perigee_km": 538.897090381608,
      "latitude_deg": 5.029459947540788e-06,
      "longitude_deg": 156.29917056550198,
      "height_km": 540.5098160382408,
      "semi_major_axis_km": 6917.896821294192,
      "eccentricity": 0.00012471,
      "inclination_deg": 53.2171,
      "raan_deg": 190.5785,
      "arg_perigee_deg": 80.2664,
      "mean_anomaly_deg": 279.8469,
      "mean_motion_rev_day": 15.08834624
    },
    {
      "epoch": "2026-04-10T04:59:48.323616Z",
      "apogee_km": 540.5978191790455,
      "perigee_km": 538.9274231365207,
      "latitude_deg": -3.874513009379236e-05,
      "longitude_deg": -85.7914170942703,
      "height_km": 540.5186771418663,
      "semi_major_axis_km": 6917.899621157783,
      "eccentricity": 0.00012073,
      "inclination_deg": 53.217,
      "raan_deg": 187.6053,
      "arg_perigee_deg": 80.3609,
      "mean_anomaly_deg": 279.7519,
      "mean_motion_rev_day": 15.08833708
    },
    {
      "epoch": "2026-04-11T11:12:07.891200Z",
      "apogee_km": 540.5686854152491,
      "perigee_km": 538.9374469376444,
      "latitude_deg": -4.248220072727656e-06,
      "longitude_deg": 174.23668118539734,
      "height_km": 540.5429726486317,
      "semi_major_axis_km": 6917.890066176446,
      "eccentricity": 0.0001179,
      "inclination_deg": 53.2168,
      "raan_deg": 181.9554,
      "arg_perigee_deg": 82.5326,
      "mean_anomaly_deg": 277.58,
      "mean_motion_rev_day": 15.08836834
    }
  ]
}